{
  "type": "FeatureCollection",
  "features": [
    {
      "type": "Feature",
      "properties": {
        "norad_id": 30719,
        "name": "FENGYUN 1C DEB",
        "group": "fengyun-1c-debris",
        "lat": -8.162104279629537,
        "lon": 135.31374205716295,
        "alt_km": 706.6344315432698,
        "timestamp": "2025-12-17T21:39:45.965362+00:00",
        "meta_object_name": "FENGYUN 1C DEB",
        "meta_object_id": "1999-025ASD",
        "meta_epoch": "2025-12-17T08:32:12.734880",
        "meta_mean_motion": 14.59395183,
        "meta_eccentricity": 0.00108701,
        "meta_inclination": 98.887,
        "meta_ra_of_asc_node": 133.4426,
        "meta_arg_of_pericenter": 182.775,
        "meta_mean_anomaly": 177.339,
        "meta_ephemeris_type": 0,
        "meta_classification_type": "U",
        "meta_norad_cat_id": 30719,
        "meta_element_set_no": 999,
        "meta_rev_at_epoch": 97516,
        "meta_bstar": 0.0026884075,
        "meta_mean_motion_dot": 0.00012711,
        "meta_mean_motion_ddot": 0,
        "tle_line1": "1 30719U 99025ASD 25351.35570295  .00012711  00000+0  26884-2 0  9998",
        "tle_line2": "2 30719  98.8870 133.4426 0010870 182.7750 177.3390 14.59395183975167"
      },
      "geometry": {
        "type": "Point",
        "coordinates": [
          135.31374205716295,
          -8.162104279629537
        ]
      }
    },
    {
      "type": "Feature",
      "properties": {
        "norad_id": 30720,
        "name": "FENGYUN 1C DEB",
        "group": "fengyun-1c-debris",
        "lat": 14.194842575448753,
        "lon": -12.112862696053465,
        "alt_km": 815.3081750229121,
        "timestamp": "2025-12-17T21:39:45.965371+00:00",
        "meta_object_name": "FENGYUN 1C DEB",
        "meta_object_id": "1999-025ASE",
        "meta_epoch": "2025-12-17T11:04:01.735680",
        "meta_mean_motion": 14.29132555,
        "meta_eccentricity": 0.00324031,
        "meta_inclination": 99.0364,
        "meta_ra_of_asc_node": 165.1228,
        "meta_arg_of_pericenter": 315.2009,
        "meta_mean_anomaly": 100.4014,
        "meta_ephemeris_type": 0,
        "meta_classification_type": "U",
        "meta_norad_cat_id": 30720,
        "meta_element_set_no": 999,
        "meta_rev_at_epoch": 97556,
        "meta_bstar": 0.00033545743,
        "meta_mean_motion_dot": 8.08e-06,
        "meta_mean_motion_ddot": 0,
        "tle_line1": "1 30720U 99025ASE 25351.46113120  .00000808  00000+0  33546-3 0  9990",
        "tle_line2": "2 30720  99.0364 165.1228 0032403 315.2009 100.4014 14.29132555975561"
      },
      "geometry": {
        "type": "Point",
        "coordinates": [
          -12.112862696053465,
          14.194842575448753
        ]
      }
    },
    {
      "type": "Feature",
      "properties": {
        "norad_id": 30721,
        "name": "FENGYUN 1C DEB",
        "group": "fengyun-1c-debris",
        "lat": 61.56271706898331,
        "lon": -39.99062664762197,
        "alt_km": 666.0872246126928,
        "timestamp": "2025-12-17T21:39:45.965382+00:00",
        "meta_object_name": "FENGYUN 1C DEB",
        "meta_object_id": "1999-025ASF",
        "meta_epoch": "2025-12-17T08:19:36.683040",
        "meta_mean_motion": 14.7206189,
        "meta_eccentricity": 0.00281666,
        "meta_inclination": 98.7088,
        "meta_ra_of_asc_node": 122.9726,
        "meta_arg_of_pericenter": 325.7545,
        "meta_mean_anomaly": 88.2562,
        "meta_ephemeris_type": 0,
        "meta_classification_type": "U",
        "meta_norad_cat_id": 30721,
        "meta_element_set_no": 999,
        "meta_rev_at_epoch": 97910,
        "meta_bstar": 0.0024009838,
        "meta_mean_motion_dot": 0.00015158,
        "meta_mean_motion_ddot": 0,
        "tle_line1": "1 30721U 99025ASF 25351.34695235  .00015158  00000+0  24010-2 0  9999",
        "tle_line2": "2 30721  98.7088 122.9726 0028166 325.7545  88.2562 14.72061890979103"
      },
      "geometry": {
        "type": "Point",
        "coordinates": [
          -39.99062664762197,
          61.56271706898331
        ]
      }
    },
    {
      "type": "Feature",
      "properties": {
        "norad_id": 30723,
        "name": "FENGYUN 1C DEB",
        "group": "fengyun-1c-debris",
        "lat": 36.870104107173795,
        "lon": -95.18979678441742,
        "alt_km": 753.9273408816962,
        "timestamp": "2025-12-17T21:39:45.965391+00:00",
        "meta_object_name": "FENGYUN 1C DEB",
        "meta_object_id": "1999-025ASH",
        "meta_epoch": "2025-12-16T05:16:24.400704",
        "meta_mean_motion": 14.41389822,
        "meta_eccentricity": 0.00157939,
        "meta_inclination": 98.8441,
        "meta_ra_of_asc_node": 76.3632,
        "meta_arg_of_pericenter": 251.6297,
        "meta_mean_anomaly": 163.5034,
        "meta_ephemeris_type": 0,
        "meta_classification_type": "U",
        "meta_norad_cat_id": 30723,
        "meta_element_set_no": 999,
        "meta_rev_at_epoch": 97421,
        "meta_bstar": 0.0015109103,
        "meta_mean_motion_dot": 4.858e-05,
        "meta_mean_motion_ddot": 0,
        "tle_line1": "1 30723U 99025ASH 25350.21972686  .00004858  00000+0  15109-2 0  9998",
        "tle_line2": "2 30723  98.8441  76.3632 0015793 251.6297 163.5034 14.41389822974212"
      },
      "geometry": {
        "type": "Point",
        "coordinates": [
          -95.18979678441742,
          36.870104107173795
        ]
      }
    },
    {
      "type": "Feature",
      "properties": {
        "norad_id": 30724,
        "name": "FENGYUN 1C DEB",
        "group": "fengyun-1c-debris",
        "lat": -25.995039638056777,
        "lon": -178.40523402032053,
        "alt_km": 771.9134925639773,
        "timestamp": "2025-12-17T21:39:45.965400+00:00",
        "meta_object_name": "FENGYUN 1C DEB",
        "meta_object_id": "1999-025ASJ",
        "meta_epoch": "2025-12-17T11:53:17.210112",
        "meta_mean_motion": 14.37060559,
        "meta_eccentricity": 0.0093002,
        "meta_inclination": 99.3149,
        "meta_ra_of_asc_node": 176.5637,
        "meta_arg_of_pericenter": 246.0448,
        "meta_mean_anomaly": 140.7994,
        "meta_ephemeris_type": 0,
        "meta_classification_type": "U",
        "meta_norad_cat_id": 30724,
        "meta_element_set_no": 999,
        "meta_rev_at_epoch": 98521,
        "meta_bstar": 0.00035250464,
        "meta_mean_motion_dot": 1.046e-05,
        "meta_mean_motion_ddot": 0,
        "tle_line1": "1 30724U 99025ASJ 25351.49533808  .00001046  00000+0  35250-3 0  9995",
        "tle_line2": "2 30724  99.3149 176.5637 0093002 246.0448 140.7994 14.37060559985219"
      },
      "geometry": {
        "type": "Point",
        "coordinates": [
          -178.40523402032053,
          -25.995039638056777
        ]
      }
    },
    {
      "type": "Feature",
      "properties": {
        "norad_id": 30725,
        "name": "FENGYUN 1C DEB",
        "group": "fengyun-1c-debris",
        "lat": 75.05796457208012,
        "lon": -82.75036966277857,
        "alt_km": 826.779471581508,
        "timestamp": "2025-12-17T21:39:45.965410+00:00",
        "meta_object_name": "FENGYUN 1C DEB",
        "meta_object_id": "1999-025ASK",
        "meta_epoch": "2025-12-17T04:29:18.946176",
        "meta_mean_motion": 14.16092421,
        "meta_eccentricity": 0.00869959,
        "meta_inclination": 99.0082,
        "meta_ra_of_asc_node": 60.0543,
        "meta_arg_of_pericenter": 17.7111,
        "meta_mean_anomaly": 37.2337,
        "meta_ephemeris_type": 0,
        "meta_classification_type": "U",
        "meta_norad_cat_id": 30725,
        "meta_element_set_no": 999,
        "meta_rev_at_epoch": 96411,
        "meta_bstar": 0.00094721188,
        "meta_mean_motion_dot": 1.896e-05,
        "meta_mean_motion_ddot": 0,
        "tle_line1": "1 30725U 99025ASK 25351.18702484  .00001896  00000+0  94721-3 0  9991",
        "tle_line2": "2 30725  99.0082  60.0543 0086995  17.7111  37.2337 14.16092421964116"
      },
      "geometry": {
        "type": "Point",
        "coordinates": [
          -82.75036966277857,
          75.05796457208012
        ]
      }
    },
    {
      "type": "Feature",
      "properties": {
        "norad_id": 30726,
        "name": "FENGYUN 1C DEB",
        "group": "fengyun-1c-debris",
        "lat": 8.232743126856729,
        "lon": -7.554807939642509,
        "alt_km": 915.3673836488751,
        "timestamp": "2025-12-17T21:39:45.965419+00:00",
        "meta_object_name": "FENGYUN 1C DEB",
        "meta_object_id": "1999-025ASL",
        "meta_epoch": "2025-12-17T12:07:17.705856",
        "meta_mean_motion": 14.09319765,
        "meta_eccentricity": 0.00781922,
        "meta_inclination": 99.2673,
        "meta_ra_of_asc_node": 353.39,
        "meta_arg_of_pericenter": 212.8864,
        "meta_mean_anomaly": 299.3316,
        "meta_ephemeris_type": 0,
        "meta_classification_type": "U",
        "meta_norad_cat_id": 30726,
        "meta_element_set_no": 999,
        "meta_rev_at_epoch": 96050,
        "meta_bstar": 0.00080592297,
        "meta_mean_motion_dot": 1.397e-05,
        "meta_mean_motion_ddot": 0,
        "tle_line1": "1 30726U 99025ASL 25351.50506604  .00001397  00000+0  80592-3 0  9991",
        "tle_line2": "2 30726  99.2673 353.3900 0078192 212.8864 299.3316 14.09319765960505"
      },
      "geometry": {
        "type": "Point",
        "coordinates": [
          -7.554807939642509,
          8.232743126856729
        ]
      }
    }
  ]
}